start=new Date('2022-06-23T00:00:00.000Z').valueOf();
sats=[{"APOAPSIS":"548.105","MEAN_MOTION_DOT":"-0.00000575","MEAN_ELEMENT_THEORY":"SGP4","EPOCH":"2022-06-22T10:26:25.262304","COUNTRY_CODE":"US","PERIAPSIS":"546.333","RA_OF_ASC_NODE":"65.0800","BSTAR":"-0.00001968800000","MEAN_ANOMALY":"287.3252","REF_FRAME":"TEME","ELEMENT_SET_NO":"999","LAUNCH_DATE":"2021-04-29","ARG_OF_PERICENTER":"72.7877","OBJECT_NAME":"STARLINK-2565","RCS_SIZE":"LARGE","MEAN_MOTION":"15.06398246","CENTER_NAME":"EARTH","INCLINATION":"53.0556","PERIOD":"95.592","ECCENTRICITY":"0.00012790","FILE":"3499789","CLASSIFICATION_TYPE":"U","REV_AT_EPOCH":"6368","SEMIMAJOR_AXIS":"6925.354","DECAY_DATE":null,"OBJECT_ID":"2021-036E","SITE":"AFETR","MEAN_MOTION_DDOT":"0.0000000000000","NORAD_CAT_ID":"48280","OBJECT_TYPE":"PAYLOAD","TLE_LINE1":"1 48280U 21036E   22173.43501461 -.00000575  00000-0 -19688-4 0  9998","TLE_LINE2":"2 48280  53.0556  65.0800 0001279  72.7877 287.3252 15.06398246 63680","EPHEMERIS_TYPE":"0","GP_ID":"206618745","TIME_SYSTEM":"UTC"},{"TIME_SYSTEM":"UTC","EPHEMERIS_TYPE":"0","GP_ID":"206648126","TLE_LINE2":"2 48281  53.0547  42.9434 0001336  72.5171 287.5964 15.06385672 64038","TLE_LINE1":"1 48281U 21036F   22173.91235482 -.00003044  00000-0 -18561-3 0  9991","OBJECT_TYPE":"PAYLOAD","NORAD_CAT_ID":"48281","MEAN_MOTION_DDOT":"0.0000000000000","SITE":"AFETR","OBJECT_ID":"2021-036F","SEMIMAJOR_AXIS":"6925.392","DECAY_DATE":null,"REV_AT_EPOCH":"6403","FILE":"3500001","CLASSIFICATION_TYPE":"U","ECCENTRICITY":"0.00013360","INCLINATION":"53.0547","PERIOD":"95.593","CENTER_NAME":"EARTH","MEAN_MOTION":"15.06385672","RCS_SIZE":"LARGE","OBJECT_NAME":"STARLINK-2520","ARG_OF_PERICENTER":"72.5171","LAUNCH_DATE":"2021-04-29","MEAN_ANOMALY":"287.5964","REF_FRAME":"TEME","ELEMENT_SET_NO":"999","RA_OF_ASC_NODE":"42.9434","BSTAR":"-0.00018561000000","EPOCH":"2022-06-22T21:53:47.456448","COUNTRY_CODE":"US","PERIAPSIS":"546.332","MEAN_ELEMENT_THEORY":"SGP4","MEAN_MOTION_DOT":"-0.00003044","APOAPSIS":"548.183"},{"REV_AT_EPOCH":"6395","SEMIMAJOR_AXIS":"6925.361","DECAY_DATE":null,"OBJECT_ID":"2021-036G","SITE":"AFETR","MEAN_MOTION_DDOT":"0.0000000000000","NORAD_CAT_ID":"48282","OBJECT_TYPE":"PAYLOAD","TLE_LINE1":"1 48282U 21036G   22173.80314618  .00000566  00000-0  56909-4 0  9992","TLE_LINE2":"2 48282  53.0566  48.4378 0001551  81.8189 278.2976 15.06396079 63952","GP_ID":"206648377","EPHEMERIS_TYPE":"0","TIME_SYSTEM":"UTC","APOAPSIS":"548.300","MEAN_MOTION_DOT":"0.00000566","MEAN_ELEMENT_THEORY":"SGP4","EPOCH":"2022-06-22T19:16:31.829952","COUNTRY_CODE":"US","PERIAPSIS":"546.151","RA_OF_ASC_NODE":"48.4378","BSTAR":"0.00005690900000","MEAN_ANOMALY":"278.2976","REF_FRAME":"TEME","ELEMENT_SET_NO":"999","LAUNCH_DATE":"2021-04-29","ARG_OF_PERICENTER":"81.8189","RCS_SIZE":"LARGE","OBJECT_NAME":"STARLINK-2558","MEAN_MOTION":"15.06396079","CENTER_NAME":"EARTH","INCLINATION":"53.0566","PERIOD":"95.592","ECCENTRICITY":"0.00015510","CLASSIFICATION_TYPE":"U","FILE":"3500001"},{"SITE":"AFETR","REV_AT_EPOCH":"6397","OBJECT_ID":"2021-036H","DECAY_DATE":null,"SEMIMAJOR_AXIS":"6925.363","TLE_LINE2":"2 48283  53.0568  47.8639 0001547  73.5148 286.6011 15.06395217 63974","TLE_LINE1":"1 48283U 21036H   22173.93215667  .00001007  00000-0  86492-4 0  9992","TIME_SYSTEM":"UTC","EPHEMERIS_TYPE":"0","GP_ID":"206649128","MEAN_MOTION_DDOT":"0.0000000000000","OBJECT_TYPE":"PAYLOAD","NORAD_CAT_ID":"48283","MEAN_ANOMALY":"286.6011","REF_FRAME":"TEME","ELEMENT_SET_NO":"999","RA_OF_ASC_NODE":"47.8639","BSTAR":"0.00008649200000","MEAN_MOTION_DOT":"0.00001007","APOAPSIS":"548.300","EPOCH":"2022-06-22T22:22:18.336288","COUNTRY_CODE":"US","PERIAPSIS":"546.157","MEAN_ELEMENT_THEORY":"SGP4","INCLINATION":"53.0568","PERIOD":"95.592","FILE":"3500001","CLASSIFICATION_TYPE":"U","ECCENTRICITY":"0.00015470","ARG_OF_PERICENTER":"73.5148","LAUNCH_DATE":"2021-04-29","CENTER_NAME":"EARTH","MEAN_MOTION":"15.06395217","RCS_SIZE":"LARGE","OBJECT_NAME":"STARLINK-2516"},{"EPOCH":"2022-06-22T22:17:00.152736","PERIAPSIS":"546.142","COUNTRY_CODE":"US","MEAN_ELEMENT_THEORY":"SGP4","MEAN_MOTION_DOT":"0.00000897","APOAPSIS":"548.301","MEAN_ANOMALY":"284.4614","REF_FRAME":"TEME","ELEMENT_SET_NO":"999","BSTAR":"0.00007910400000","RA_OF_ASC_NODE":"47.8609","MEAN_MOTION":"15.06397500","CENTER_NAME":"EARTH","OBJECT_NAME":"STARLINK-2564","RCS_SIZE":"LARGE","ARG_OF_PERICENTER":"75.6548","LAUNCH_DATE":"2021-04-29","CLASSIFICATION_TYPE":"U","FILE":"3500001","ECCENTRICITY":"0.00015590","INCLINATION":"53.0571","PERIOD":"95.592","OBJECT_ID":"2021-036J","DECAY_DATE":null,"SEMIMAJOR_AXIS":"6925.356","REV_AT_EPOCH":"6396","SITE":"AFETR","OBJECT_TYPE":"PAYLOAD","NORAD_CAT_ID":"48284","MEAN_MOTION_DDOT":"0.0000000000000","TIME_SYSTEM":"UTC","GP_ID":"206647377","EPHEMERIS_TYPE":"0","TLE_LINE2":"2 48284  53.0571  47.8609 0001559  75.6548 284.4614 15.06397500 63967","TLE_LINE1":"1 48284U 21036J   22173.92847399  .00000897  00000-0  79104-4 0  9993"},{"BSTAR":"-0.00004356400000","RA_OF_ASC_NODE":"47.8828","REF_FRAME":"TEME","ELEMENT_SET_NO":"999","MEAN_ANOMALY":"289.4795","MEAN_ELEMENT_THEORY":"SGP4","COUNTRY_CODE":"US","PERIAPSIS":"546.224","EPOCH":"2022-06-22T22:10:20.704800","APOAPSIS":"548.292","MEAN_MOTION_DOT":"-0.00000930","ECCENTRICITY":"0.00014930","FILE":"3500001","CLASSIFICATION_TYPE":"U","PERIOD":"95.593","INCLINATION":"53.0575","OBJECT_NAME":"STARLINK-2548","RCS_SIZE":"LARGE","CENTER_NAME":"EARTH","MEAN_MOTION":"15.06385569","LAUNCH_DATE":"2021-04-29","ARG_OF_PERICENTER":"70.6355","SITE":"AFETR","DECAY_DATE":null,"SEMIMAJOR_AXIS":"6925.393","OBJECT_ID":"2021-036K","REV_AT_EPOCH":"6396","EPHEMERIS_TYPE":"0","GP_ID":"206647626","TIME_SYSTEM":"UTC","TLE_LINE1":"1 48285U 21036K   22173.92385075 -.00000930  00000-0 -43564-4 0  9993","TLE_LINE2":"2 48285  53.0575  47.8828 0001493  70.6355 289.4795 15.06385569 63960","NORAD_CAT_ID":"48285","OBJECT_TYPE":"PAYLOAD","MEAN_MOTION_DDOT":"0.0000000000000"},{"SEMIMAJOR_AXIS":"6925.345","DECAY_DATE":null,"OBJECT_ID":"2021-036L","REV_AT_EPOCH":"6396","SITE":"AFETR","NORAD_CAT_ID":"48286","OBJECT_TYPE":"PAYLOAD","MEAN_MOTION_DDOT":"0.0000000000000","EPHEMERIS_TYPE":"0","GP_ID":"206648878","TIME_SYSTEM":"UTC","TLE_LINE1":"1 48286U 21036L   22173.92109492 -.00000011  00000-0  18159-4 0  9992","TLE_LINE2":"2 48286  53.0561  47.9150 0001702  71.5016 288.6157 15.06401142 63961","MEAN_ELEMENT_THEORY":"SGP4","EPOCH":"2022-06-22T22:06:22.601088","PERIAPSIS":"546.031","COUNTRY_CODE":"US","APOAPSIS":"548.389","MEAN_MOTION_DOT":"-0.00000011","RA_OF_ASC_NODE":"47.9150","BSTAR":"0.00001815900000","MEAN_ANOMALY":"288.6157","REF_FRAME":"TEME","ELEMENT_SET_NO":"999","RCS_SIZE":"LARGE","OBJECT_NAME":"STARLINK-2547","CENTER_NAME":"EARTH","MEAN_MOTION":"15.06401142","LAUNCH_DATE":"2021-04-29","ARG_OF_PERICENTER":"71.5016","ECCENTRICITY":"0.00017020","FILE":"3500001","CLASSIFICATION_TYPE":"U","INCLINATION":"53.0561","PERIOD":"95.592"},{"SITE":"AFETR","REV_AT_EPOCH":"6396","OBJECT_ID":"2021-036M","SEMIMAJOR_AXIS":"6925.259","DECAY_DATE":null,"TLE_LINE2":"2 48287  53.0574  47.9204 0002316  63.7201 296.4025 15.06429345 63963","TLE_LINE1":"1 48287U 21036M   22173.91741066 -.00007714  00000-0 -49910-3 0  9997","TIME_SYSTEM":"UTC","EPHEMERIS_TYPE":"0","GP_ID":"206648628","MEAN_MOTION_DDOT":"0.0000000000000","OBJECT_TYPE":"PAYLOAD","NORAD_CAT_ID":"48287","ELEMENT_SET_NO":"999","REF_FRAME":"TEME","MEAN_ANOMALY":"296.4025","RA_OF_ASC_NODE":"47.9204","BSTAR":"-0.00049910000000","MEAN_MOTION_DOT":"-0.00007714","APOAPSIS":"548.728","COUNTRY_CODE":"US","PERIAPSIS":"545.520","EPOCH":"2022-06-22T22:01:04.281024","MEAN_ELEMENT_THEORY":"SGP4","PERIOD":"95.590","INCLINATION":"53.0574","FILE":"3500001","CLASSIFICATION_TYPE":"U","ECCENTRICITY":"0.00023160","ARG_OF_PERICENTER":"63.7201","LAUNCH_DATE":"2021-04-29","CENTER_NAME":"EARTH","MEAN_MOTION":"15.06429345","OBJECT_NAME":"STARLINK-2566","RCS_SIZE":"LARGE"},{"APOAPSIS":"548.335","MEAN_MOTION_DOT":"-0.00000427","MEAN_ELEMENT_THEORY":"SGP4","COUNTRY_CODE":"US","PERIAPSIS":"546.111","EPOCH":"2022-06-22T21:54:24.619680","BSTAR":"-0.00000979330000","RA_OF_ASC_NODE":"47.9312","ELEMENT_SET_NO":"999","REF_FRAME":"TEME","MEAN_ANOMALY":"298.7595","LAUNCH_DATE":"2021-04-29","ARG_OF_PERICENTER":"61.3555","OBJECT_NAME":"STARLINK-2562","RCS_SIZE":"LARGE","MEAN_MOTION":"15.06396903","CENTER_NAME":"EARTH","PERIOD":"95.592","INCLINATION":"53.0554","ECCENTRICITY":"0.00016060","FILE":"3500001","CLASSIFICATION_TYPE":"U","REV_AT_EPOCH":"6396","SEMIMAJOR_AXIS":"6925.358","DECAY_DATE":null,"OBJECT_ID":"2021-036N","SITE":"AFETR","MEAN_MOTION_DDOT":"0.0000000000000","NORAD_CAT_ID":"48288","OBJECT_TYPE":"PAYLOAD","TLE_LINE1":"1 48288U 21036N   22173.91278495 -.00000427  00000-0 -97933-5 0  9993","TLE_LINE2":"2 48288  53.0554  47.9312 0001606  61.3555 298.7595 15.06396903 63969","GP_ID":"206647877","EPHEMERIS_TYPE":"0","TIME_SYSTEM":"UTC"},{"SITE":"AFETR","OBJECT_ID":"2021-036P","SEMIMAJOR_AXIS":"6925.352","DECAY_DATE":null,"REV_AT_EPOCH":"6396","TIME_SYSTEM":"UTC","EPHEMERIS_TYPE":"0","GP_ID":"206648127","TLE_LINE2":"2 48289  53.0563  47.9456 0001793  64.1907 295.9267 15.06398821 63964","TLE_LINE1":"1 48289U 21036P   22173.91004435 -.00002684  00000-0 -16132-3 0  9992","OBJECT_TYPE":"PAYLOAD","NORAD_CAT_ID":"48289","MEAN_MOTION_DDOT":"0.0000000000000","REF_FRAME":"TEME","ELEMENT_SET_NO":"999","MEAN_ANOMALY":"295.9267","BSTAR":"-0.00016132000000","RA_OF_ASC_NODE":"47.9456","COUNTRY_CODE":"US","PERIAPSIS":"545.975","EPOCH":"2022-06-22T21:50:27.831840","MEAN_ELEMENT_THEORY":"SGP4","MEAN_MOTION_DOT":"-0.00002684","APOAPSIS":"548.459","CLASSIFICATION_TYPE":"U","FILE":"3500001","ECCENTRICITY":"0.00017930","PERIOD":"95.592","INCLINATION":"53.0563","CENTER_NAME":"EARTH","MEAN_MOTION":"15.06398821","OBJECT_NAME":"STARLINK-2545","RCS_SIZE":"LARGE","ARG_OF_PERICENTER":"64.1907","LAUNCH_DATE":"2021-04-29"}];
